KUIPER-00053            
1 64513U 25134P   25355.03630567  .00001698  00000+0  25164-3 0  9998
2 64513  51.8998 210.8935 0001650  97.3649 262.7501 14.79950080 28566
KUIPER-00054            
1 64514U 25134Q   25355.78405200  .00002231  00000+0  32146-3 0  9997
2 64514  51.8971 202.5705 0005888  59.7124 300.4420 14.79967224 28746
KUIPER-00055            
1 64515U 25134R   25355.75538594  .00008501  00000+0  42681-3 0  9999
2 64515  51.8899 186.2008 0002329 213.4500 146.6332 15.18063727 28970
KUIPER-00056            
1 64516U 25134S   25355.77739623  .00002497  00000+0  35638-3 0  9990
2 64516  51.9005 208.6516 0003128  67.9844 292.1451 14.79940545 28668
KUIPER-00057            
1 64517U 25134T   25355.83689105  .00002553  00000+0  36394-3 0  9990
2 64517  51.8980 215.8746 0009564  25.1677 334.9750 14.79925442 28560
KUIPER-00058            
1 64518U 25134U   25355.77639058  .00002557  00000+0  36430-3 0  9991
2 64518  51.9005 210.0624 0004912  71.1665 288.9830 14.79939929 28643
KUIPER-00059            
1 64519U 25134V   25355.78188470  .00014735  00000+0  19598-2 0  9996
2 64519  51.8991 205.0955 0002944 199.4657 160.6194 14.79885518 28717
KUIPER-00060            
1 64520U 25134W   25355.57755498  .00002322  00000+0  33323-3 0  9997
2 64520  51.9003 207.0364 0002838 104.9201 255.2076 14.79967180 28657
